{
    "links": {
        "self": "http://www.neowsapp.com/rest/v1/neo/3765701?api_key=iIulBulltgU6a56xZRHN4H3l9WmuAYTsLGpBGhQ2"
    },
    "id": "3765701",
    "neo_reference_id": "3765701",
    "name": "(2016 XH18)",
    "designation": "2016 XH18",
    "nasa_jpl_url": "http://ssd.jpl.nasa.gov/sbdb.cgi?sstr=3765701",
    "absolute_magnitude_h": 23.4,
    "estimated_diameter": {
        "kilometers": {
            "estimated_diameter_min": 0.0555334912,
            "estimated_diameter_max": 0.1241766613
        },
        "meters": {
            "estimated_diameter_min": 55.5334911581,
            "estimated_diameter_max": 124.1766612574
        },
        "miles": {
            "estimated_diameter_min": 0.0345069009,
            "estimated_diameter_max": 0.0771597762
        },
        "feet": {
            "estimated_diameter_min": 182.1964991311,
            "estimated_diameter_max": 407.4037573197
        }
    },
    "is_potentially_hazardous_asteroid": false,
    "close_approach_data": [
        {
            "close_approach_date": "2016-11-14",
            "close_approach_date_full": "2016-Nov-14 18:24",
            "epoch_date_close_approach": 1479147840000,
            "relative_velocity": {
                "kilometers_per_second": "7.6494232317",
                "kilometers_per_hour": "27537.9236340033",
                "miles_per_hour": "17110.9948269172"
            },
            "miss_distance": {
                "astronomical": "0.0806362397",
                "lunar": "31.3674972433",
                "kilometers": "12063009.703929439",
                "miles": "7495606.6541226982"
            },
            "orbiting_body": "Earth"
        }
    ],
    "orbital_data": {
        "orbit_id": "5",
        "orbit_determination_date": "2017-04-06 08:21:33",
        "first_observation_date": "2016-12-06",
        "last_observation_date": "2016-12-18",
        "data_arc_in_days": 12,
        "observations_used": 47,
        "orbit_uncertainty": "8",
        "minimum_orbit_intersection": ".077225",
        "jupiter_tisserand_invariant": "3.588",
        "epoch_osculation": "2457732.5",
        "eccentricity": ".5178486482759838",
        "semi_major_axis": "2.067691560536561",
        "inclination": "6.403286852498455",
        "ascending_node_longitude": "274.8370729162877",
        "orbital_period": "1085.993084173435",
        "perihelion_distance": ".9969402808610436",
        "perihelion_argument": "119.7465610134276",
        "aphelion_distance": "3.138442840212079",
        "perihelion_time": "2457691.602744103071",
        "mean_anomaly": "13.55718773669755",
        "mean_motion": ".3314938237143575",
        "equinox": "J2000",
        "orbit_class": {
            "orbit_class_type": "APO",
            "orbit_class_description": "Near-Earth asteroid orbits which cross the Earth’s orbit similar to that of 1862 Apollo",
            "orbit_class_range": "a (semi-major axis) > 1.0 AU; q (perihelion) < 1.017 AU"
        }
    },
    "is_sentry_object": false
}